NORAD_CAT_ID,OBJECT_NAME,OBJECT_TYPE,EPOCH,MEAN_MOTION,ECCENTRICITY,INCLINATION,RA_OF_ASC_NODE,ARG_OF_PERICENTER,MEAN_ANOMALY,BSTAR,MEAN_MOTION_DOT,MEAN_MOTION_DDOT,TLE_LINE0,TLE_LINE1,TLE_LINE2,SEMIMAJOR_AXIS,PERIOD,APOGEE,PERIGEE,DECAYED
51139.0,STARLINK-3172,PAYLOAD,2023-03-19 13:41:49,15.08847995,0.0001046,53.2145,134.8981,74.6601,285.4507,0.0013667,0.00021535,0.0,0 STARLINK-3172,1 51139U 22005AM  23078.57070785  .00021535  00000-0  13667-2 0  9998,2 51139  53.2145 134.8981 0001046  74.6601 285.4507 15.08847995 64771,6917.856,95.437,540.445,538.997,0.0
51139.0,STARLINK-3172,PAYLOAD,2023-03-19 20:03:21,15.08825432,0.0001263,53.2133,133.7077,81.2598,278.8537,0.0018865,0.00029851,0.0,0 STARLINK-3172,1 51139U 22005AM  23078.83567078  .00029851  00000-0  18865-2 0  9997,2 51139  53.2133 133.7077 0001263  81.2598 278.8537 15.08825432 65921,6917.925,95.438,540.664,538.916,0.0
51139.0,STARLINK-3172,PAYLOAD,2023-03-20 10:21:50,15.08840992,0.0001334,53.2152,131.0334,95.5222,264.5922,0.0006077,9.397e-05,0.0,0 STARLINK-3172,1 51139U 22005AM  23079.43183112  .00009397  00000-0  60770-3 0  9993,2 51139  53.2152 131.0334 0001334  95.5222 264.5922 15.08840992 66019,6917.877,95.437,540.665,538.82,0.0
51139.0,STARLINK-3172,PAYLOAD,2023-03-20 19:54:09,15.08837361,0.0001037,53.2146,129.2476,102.9529,257.1579,0.00022118,3.234e-05,0.0,0 STARLINK-3172,1 51139U 22005AM  23079.82927268  .00003234  00000-0  22118-3 0  9992,2 51139  53.2146 129.2476 0001037 102.9529 257.1579 15.08837361 66079,6917.888,95.438,540.471,539.036,0.0
51139.0,STARLINK-3172,PAYLOAD,2023-03-21 11:48:00,15.08846278,0.0001149,53.2136,126.2741,93.0435,267.0688,0.00031269,4.693e-05,0.0,0 STARLINK-3172,1 51139U 22005AM  23080.49167142  .00004693  00000-0  31269-3 0  9991,2 51139  53.2136 126.2741 0001149  93.0435 267.0688 15.08846278 65066,6917.861,95.437,540.521,538.931,0.0
51139.0,STARLINK-3172,PAYLOAD,2023-03-21 19:44:56,15.08846576,0.0001222,53.2143,124.7874,90.6043,269.5089,0.00029822,4.462e-05,0.0,0 STARLINK-3172,1 51139U 22005AM  23080.82287165  .00004462  00000-0  29822-3 0  9992,2 51139  53.2143 124.7874 0001222  90.6043 269.5089 15.08846576 65113,6917.86,95.437,540.571,538.88,0.0
51139.0,STARLINK-3172,PAYLOAD,2023-03-22 03:41:52,15.08834698,0.0001495,53.2167,123.3026,98.5922,261.524,-2.6348e-05,-7.07e-06,0.0,0 STARLINK-3172,1 51139U 22005AM  23081.15407608 -.00000707  00000-0 -26348-4 0  9996,2 51139  53.2167 123.3026 0001495  98.5922 261.5240 15.08834698 66279,6917.897,95.438,540.796,538.727,0.0
51139.0,STARLINK-3172,PAYLOAD,2023-03-22 14:49:33,15.08844324,0.0001361,53.2147,121.2185,89.5775,270.5373,0.00010726,1.42e-05,0.0,0 STARLINK-3172,1 51139U 22005AM  23081.61775253  .00001420  00000-0  10726-3 0  9994,2 51139  53.2147 121.2185 0001361  89.5775 270.5373 15.08844324 66340,6917.867,95.437,540.674,538.791,0.0
51139.0,STARLINK-3172,PAYLOAD,2023-03-23 03:32:39,15.08839309,0.0001437,53.2147,118.8391,94.1692,265.9464,9.763e-05,1.266e-05,0.0,0 STARLINK-3172,1 51139U 22005AM  23082.14767696  .00001266  00000-0  97630-4 0  9993,2 51139  53.2147 118.8391 0001437  94.1692 265.9464 15.08839309 66420,6917.883,95.438,540.742,538.753,0.0
51139.0,STARLINK-3172,PAYLOAD,2023-03-23 11:29:34,15.08852017,0.0001344,53.2146,117.3518,92.1436,267.971,0.0002389,3.517e-05,0.0,0 STARLINK-3172,1 51139U 22005AM  23082.47887085  .00003517  00000-0  23890-3 0  9991,2 51139  53.2146 117.3518 0001344  92.1436 267.9710 15.08852017 66477,6917.844,95.437,540.638,538.779,0.0
51139.0,STARLINK-3172,PAYLOAD,2023-03-23 19:26:30,15.08843046,0.0001415,53.2146,115.865,82.2544,277.8609,0.00013545,1.869e-05,0.0,0 STARLINK-3172,1 51139U 22005AM  23082.81007469  .00001869  00000-0  13545-3 0  9993,2 51139  53.2146 115.8650 0001415  82.2544 277.8609 15.08843046 66521,6917.871,95.437,540.715,538.757,0.0
51139.0,STARLINK-3172,PAYLOAD,2023-03-24 06:34:11,15.08859833,0.0001548,53.2152,113.785,80.6504,279.4664,0.00045578,6.977e-05,0.0,0 STARLINK-3172,1 51139U 22005AM  23083.27374943  .00006977  00000-0  45578-3 0  9994,2 51139  53.2152 113.7850 0001548  80.6504 279.4664 15.08859833 66599,6917.82,95.436,540.756,538.614,0.0
51139.0,STARLINK-3172,PAYLOAD,2023-03-24 11:20:20,15.08867453,0.000135,53.2144,112.8903,83.0297,277.0849,0.00064847,0.00010055,0.0,0 STARLINK-3172,1 51139U 22005AM  23083.47246375  .00010055  00000-0  64847-3 0  9995,2 51139  53.2144 112.8903 0001350  83.0297 277.0849 15.08867453 65513,6917.796,95.436,540.595,538.728,0.0
51139.0,STARLINK-3172,PAYLOAD,2023-03-24 19:17:17,15.08835987,0.000114,53.2145,111.4041,96.723,263.3892,-9.488e-05,-1.797e-05,0.0,0 STARLINK-3172,1 51139U 22005AM  23083.80367207 -.00001797  00000-0 -94880-4 0  9996,2 51139  53.2145 111.4041 0001140  96.7230 263.3892 15.08835987 66678,6917.893,95.438,540.546,538.969,0.0
51139.0,STARLINK-3172,PAYLOAD,2023-03-25 01:38:50,15.0881404,0.0001137,53.2142,110.2145,99.2059,260.9062,-0.00053374,-8.766e-05,0.0,0 STARLINK-3172,1 51139U 22005AM  23084.06864154 -.00008766  00000-0 -53374-3 0  9993,2 51139  53.2142 110.2145 0001137  99.2059 260.9062 15.08814040 66714,6917.96,95.439,540.611,539.038,0.0
51139.0,STARLINK-3172,PAYLOAD,2023-03-25 19:08:05,15.0882548,0.0001325,53.2157,106.9436,100.8389,259.2752,-3.1408e-05,-7.87e-06,0.0,0 STARLINK-3172,1 51139U 22005AM  23084.79728975 -.00000787  00000-0 -31408-4 0  9993,2 51139  53.2157 106.9436 0001325 100.8389 259.2752 15.08825480 66828,6917.925,95.438,540.706,538.873,0.0
51139.0,STARLINK-3172,PAYLOAD,2023-03-26 11:01:57,15.08851501,0.0001155,53.215,103.9692,106.4568,253.6552,0.0013147,0.00020704,0.0,0 STARLINK-3172,1 51139U 22005AM  23085.45969277  .00020704  00000-0  13147-2 0  9996,2 51139  53.2150 103.9692 0001155 106.4568 253.6552 15.08851501 66924,6917.845,95.437,540.509,538.911,0.0
51139.0,STARLINK-3172,PAYLOAD,2023-03-26 12:37:20,15.08855729,0.000115,53.215,103.6726,102.3204,257.7917,0.0013845,0.00021824,0.0,0 STARLINK-3172,1 51139U 22005AM  23085.52593224  .00021824  00000-0  13845-2 0  9998,2 51139  53.2150 103.6726 0001150 102.3204 257.7917 15.08855729 65820,6917.832,95.437,540.493,538.902,0.0
51139.0,STARLINK-3172,PAYLOAD,2023-03-27 04:31:11,15.08855841,0.0001366,53.2155,100.6972,119.4749,240.638,0.00044249,6.764e-05,0.0,0 STARLINK-3172,1 51139U 22005AM  23086.18832639  .00006764  00000-0  44249-3 0  9996,2 51139  53.2155 100.6972 0001366 119.4749 240.6380 15.08855841 67032,6917.832,95.437,540.642,538.752,0.0
51139.0,STARLINK-3172,PAYLOAD,2023-03-27 10:52:43,15.08868359,0.0001227,53.2156,99.5087,105.9931,254.1196,0.00083813,0.00013086,0.0,0 STARLINK-3172,1 51139U 22005AM  23086.45328238  .00013086  00000-0  83813-3 0  9996,2 51139  53.2156  99.5087 0001227 105.9931 254.1196 15.08868359 65968,6917.794,95.436,540.508,538.81,0.0
51139.0,STARLINK-3172,PAYLOAD,2023-03-27 17:14:16,15.08859693,0.0001254,53.2172,98.318,94.4523,265.6613,0.00052899,8.145e-05,0.0,0 STARLINK-3172,1 51139U 22005AM  23086.71824214  .00008145  00000-0  52899-3 0  9990,2 51139  53.2172  98.3180 0001254  94.4523 265.6613 15.08859693 66004,6917.82,95.436,540.553,538.818,0.0
51139.0,STARLINK-3172,PAYLOAD,2023-03-28 04:21:57,15.08848297,0.0001572,53.2167,96.2396,116.2328,243.8825,-4.2041e-05,-9.57e-06,0.0,0 STARLINK-3172,1 51139U 22005AM  23087.18192114 -.00000957  00000-0 -42041-4 0  9993,2 51139  53.2167  96.2396 0001572 116.2328 243.8825 15.08848297 67184,6917.855,95.437,540.808,538.633,0.0
51139.0,STARLINK-3172,PAYLOAD,2023-03-28 10:43:30,15.08853822,0.000126,53.2159,95.0492,105.5668,254.5463,0.00026824,3.985e-05,0.0,0 STARLINK-3172,1 51139U 22005AM  23087.44687984  .00003985  00000-0  26824-3 0  9998,2 51139  53.2159  95.0492 0001260 105.5668 254.5463 15.08853822 66110,6917.838,95.437,540.575,538.831,0.0
51139.0,STARLINK-3172,PAYLOAD,2023-03-28 17:05:03,15.0884596,0.0001292,53.2158,93.86,100.9699,259.1439,0.00013832,1.914e-05,0.0,0 STARLINK-3172,1 51139U 22005AM  23087.71184136  .00001914  00000-0  13832-3 0  9994,2 51139  53.2158  93.8600 0001292 100.9699 259.1439 15.08845960 66156,6917.862,95.437,540.621,538.833,0.0
51139.0,STARLINK-3172,PAYLOAD,2023-03-29 08:58:54,15.08847268,0.0001185,53.216,90.8859,103.8499,256.2625,8.6993e-05,1.097e-05,0.0,0 STARLINK-3172,1 51139U 22005AM  23088.37423932  .00001097  00000-0  86993-4 0  9998,2 51139  53.2160  90.8859 0001185 103.8499 256.2625 15.08847268 67365,6917.858,95.437,540.543,538.903,0.0
51139.0,STARLINK-3172,PAYLOAD,2023-03-29 16:55:49,15.08847376,0.0001154,53.2156,89.4,92.5238,267.5886,0.00014071,1.953e-05,0.0,0 STARLINK-3172,1 51139U 22005AM  23088.70543964  .00001953  00000-0  14071-3 0  9991,2 51139  53.2156  89.4000 0001154  92.5238 267.5886 15.08847376 66300,6917.858,95.437,540.521,538.925,0.0
51139.0,STARLINK-3172,PAYLOAD,2023-03-30 00:52:46,15.08834483,0.0001312,53.2168,87.9136,93.302,266.8123,-2.5746e-05,-6.98e-06,0.0,0 STARLINK-3172,1 51139U 22005AM  23089.03664553 -.00000698  00000-0 -25746-4 0  9995,2 51139  53.2168  87.9136 0001312  93.3020 266.8123 15.08834483 67469,6917.897,95.438,540.67,538.855,0.0
51139.0,STARLINK-3172,PAYLOAD,2023-03-30 08:49:41,15.08842598,0.0001273,53.2164,86.4253,86.148,273.9658,9.0159e-05,1.147e-05,0.0,0 STARLINK-3172,1 51139U 22005AM  23089.36784554  .00001147  00000-0  90159-4 0  9993,2 51139  53.2164  86.4253 0001273  86.1480 273.9658 15.08842598 66406,6917.872,95.437,540.618,538.857,0.0
51139.0,STARLINK-3172,PAYLOAD,2023-03-31 05:29:42,15.08841983,0.0001406,53.2159,82.5609,88.5806,271.5347,5.3594e-05,5.65e-06,0.0,0 STARLINK-3172,1 51139U 22005AM  23090.22896453  .00000565  00000-0  53594-4 0  9997,2 51139  53.2159  82.5609 0001406  88.5806 271.5347 15.08841983 67641,6917.874,95.437,540.712,538.767,0.0
51139.0,STARLINK-3172,PAYLOAD,2023-04-01 05:20:29,15.08838364,0.0001067,53.2152,78.099,83.5974,276.5139,0.00014045,1.948e-05,0.0,0 STARLINK-3172,1 51139U 22005AM  23091.22256697  .00001948  00000-0  14045-3 0  9991,2 51139  53.2152  78.0990 0001067  83.5974 276.5139 15.08838364 67790,6917.885,95.438,540.489,539.012,0.0
